OSCAR-7
1 07530U 74089B 20290.47035438 -.00000049 00000-0 -25370-4 0 9996
2 07530 101.8169 259.6001 0012367 129.6389 346.9652 12.53645625101391
OSCAR-11
1 14781U 84021B 20289.91498228 .00000074 00000-0 15171-4 0 9990
2 14781 97.5910 295.8991 0008974 156.1437 204.0195 14.83199307949684